ONEWEB-0126             
1 47272U 20100Q   23292.93748118  .00000218  00000+0  56980-3 0  9995
2 47272  87.8990 183.7735 0001567  72.9048 287.2252 13.12444680137303
ONEWEB-0127             
1 47273U 20100R   23292.21430270  .00000176  00000+0  45278-3 0  9995
2 47273  87.9064 183.9336 0001622  74.3480 285.7828 13.12444858137235
ONEWEB-0128             
1 47274U 20100S   23292.23548050  .00000395  00000+0  10613-2 0  9991
2 47274  87.9073 183.9174 0001697  60.8151 299.3147 13.12444028137259
ONEWEB-0129             
1 47275U 20100T   23292.21640765  .00000240  00000+0  63146-3 0  9995
2 47275  87.9010 183.9394 0000365 153.4527 206.6620 13.12447030137187
ONEWEB-0130             
1 47276U 20100U   23292.92796891  .00000507  00000+0  13741-2 0  9997
2 47276  87.8996 183.7841 0001805  73.1571 286.9755 13.12441227137241
ONEWEB-0131             
1 47277U 20100V   23292.92584971  .00000390  00000+0  10481-2 0  9990
2 47277  87.9077 183.7741 0001875  69.3894 290.7436 13.12449558137282
ONEWEB-0132             
1 47278U 20100W   23292.95548980  .00000150  00000+0  38288-3 0  9994
2 47278  87.9088 183.7711 0002139  76.0453 284.0914 13.12442866137183
ONEWEB-0133             
1 47279U 20100X   23292.66748355 -.00000207  00000+0 -61169-3 0  9990
2 47279  87.9063 183.8489 0001796  70.6857 289.4466 13.12444715137306
